[{"OBJECT_NAME":"VSP RF B1","OBJECT_ID":"2024-043AR","EPOCH":"2026-03-09T22:40:29.479296","MEAN_MOTION":15.26694159,"ECCENTRICITY":0.00102608,"INCLINATION":97.5446,"RA_OF_ASC_NODE":204.7052,"ARG_OF_PERICENTER":220.7435,"MEAN_ANOMALY":139.3037,"EPHEMERIS_TYPE":0,"CLASSIFICATION_TYPE":"U","NORAD_CAT_ID":59137,"ELEMENT_SET_NO":999,"REV_AT_EPOCH":11187,"BSTAR":0.00024406819,"MEAN_MOTION_DOT":6.341e-5,"MEAN_MOTION_DDOT":0},{"OBJECT_NAME":"STARLINK-36108","OBJECT_ID":"2025-281W","EPOCH":"2026-03-09T04:14:59.957376","MEAN_MOTION":15.27589441,"ECCENTRICITY":0.00021492,"INCLINATION":42.9977,"RA_OF_ASC_NODE":346.6724,"ARG_OF_PERICENTER":260.482,"MEAN_ANOMALY":99.5789,"EPHEMERIS_TYPE":0,"CLASSIFICATION_TYPE":"U","NORAD_CAT_ID":66868,"ELEMENT_SET_NO":999,"REV_AT_EPOCH":1609,"BSTAR":0.0011275723,"MEAN_MOTION_DOT":0.00030906,"MEAN_MOTION_DDOT":0}]
